[{"OBJECT_NAME":"STARLINK-35670","OBJECT_ID":"2025-262AA","EPOCH":"2026-03-08T16:49:15.738240","MEAN_MOTION":15.27576159,"ECCENTRICITY":0.00016234,"INCLINATION":43.0034,"RA_OF_ASC_NODE":301.8816,"ARG_OF_PERICENTER":269.8132,"MEAN_ANOMALY":90.2534,"EPHEMERIS_TYPE":0,"CLASSIFICATION_TYPE":"U","NORAD_CAT_ID":66480,"ELEMENT_SET_NO":999,"REV_AT_EPOCH":1875,"BSTAR":0.00089741974,"MEAN_MOTION_DOT":0.00024512,"MEAN_MOTION_DDOT":0},{"OBJECT_NAME":"OBJECT G","OBJECT_ID":"2026-023G","EPOCH":"2026-03-09T17:12:13.064832","MEAN_MOTION":15.23234695,"ECCENTRICITY":0.00237819,"INCLINATION":96.6246,"RA_OF_ASC_NODE":144.1318,"ARG_OF_PERICENTER":118.2502,"MEAN_ANOMALY":242.1141,"EPHEMERIS_TYPE":0,"CLASSIFICATION_TYPE":"U","NORAD_CAT_ID":67680,"ELEMENT_SET_NO":999,"REV_AT_EPOCH":484,"BSTAR":0.00060026958,"MEAN_MOTION_DOT":0.00014279,"MEAN_MOTION_DDOT":0}]
